IRIDIUM 171             
1 43929U 19002H   25127.80623973  .00000023  00000+0  11751-5 0  9998
2 43929  86.4006 163.2845 0002575  94.1313 266.0177 14.34217463330855
IRIDIUM 170             
1 43930U 19002J   25127.80576328  .00000408  00000+0  60767-4 0  9998
2 43930  86.6123 163.0481 0002558 103.1270 257.0233 14.72239903339618
IRIDIUM 167             
1 43931U 19002K   25127.79989684 -.00000044  00000+0 -22892-4 0  9995
2 43931  86.3997 163.0448 0002566 101.0073 259.1412 14.34217222330852
IRIDIUM 181             
1 56726U 23068S   25127.80684256  .00000484  00000+0  13792-3 0  9991
2 56726  86.4541 226.0845 0002886  91.6807 268.4725 14.43311336103960
IRIDIUM 177             
1 56727U 23068T   25127.84816006  .00001400  00000+0  18078-3 0  9997
2 56727  86.1986 161.2713 0002634  94.0769 266.0753 14.80229554106408
IRIDIUM 174             
1 56728U 23068U   25127.59196673  .00001276  00000+0  19632-3 0  9999
2 56728  86.6122 163.2456 0002309 104.7148 255.4325 14.72736685106340
IRIDIUM 178             
1 56729U 23068V   25127.76964092  .00001462  00000+0  18901-3 0  9992
2 56729  86.6597 194.6905 0002219  89.0758 271.0718 14.80236607106399
IRIDIUM 179             
1 56730U 23068W   25127.69668488  .00001749  00000+0  22672-3 0  9994
2 56730  86.6841 202.4687 0002316  97.9806 262.1679 14.80242132106384
